[{"OBJECT_NAME":"STARLINK-1541","OBJECT_ID":"2020-055AB","EPOCH":"2026-03-09T13:01:35.046336","MEAN_MOTION":15.30198741,"ECCENTRICITY":0.00012232,"INCLINATION":53.1593,"RA_OF_ASC_NODE":114.5667,"ARG_OF_PERICENTER":89.1239,"MEAN_ANOMALY":270.9902,"EPHEMERIS_TYPE":0,"CLASSIFICATION_TYPE":"U","NORAD_CAT_ID":46052,"ELEMENT_SET_NO":999,"REV_AT_EPOCH":30902,"BSTAR":0.00012936602,"MEAN_MOTION_DOT":3.474e-5,"MEAN_MOTION_DDOT":0},{"OBJECT_NAME":"HAWK-2B","OBJECT_ID":"2021-006CZ","EPOCH":"2026-03-09T16:13:51.664224","MEAN_MOTION":15.33301353,"ECCENTRICITY":0.00071021,"INCLINATION":97.2334,"RA_OF_ASC_NODE":114.114,"ARG_OF_PERICENTER":185.9063,"MEAN_ANOMALY":174.2098,"EPHEMERIS_TYPE":0,"CLASSIFICATION_TYPE":"U","NORAD_CAT_ID":47508,"ELEMENT_SET_NO":999,"REV_AT_EPOCH":28424,"BSTAR":0.00029650607,"MEAN_MOTION_DOT":9.474e-5,"MEAN_MOTION_DDOT":0}]
